COMMENT,ORIGINATOR,NORAD_CAT_ID,OBJECT_NAME,OBJECT_TYPE,CLASSIFICATION_TYPE,INTLDES,EPOCH,EPOCH_MICROSECONDS,MEAN_MOTION,ECCENTRICITY,INCLINATION,RA_OF_ASC_NODE,ARG_OF_PERICENTER,MEAN_ANOMALY,EPHEMERIS_TYPE,ELEMENT_SET_NO,REV_AT_EPOCH,BSTAR,MEAN_MOTION_DOT,MEAN_MOTION_DDOT,FILE,TLE_LINE0,TLE_LINE1,TLE_LINE2,OBJECT_ID,OBJECT_NUMBER,SEMIMAJOR_AXIS,PERIOD,APOGEE,PERIGEE,DECAYED
GENERATED VIA SPACETRACK.ORG API,18 SPCS,4084,SL-8 DEB,DEBRIS,U,69070C,2024-10-01 12:30:38,317248,14.4668315,0.0020706,74.0692,38.725,90.108,270.2451,0,999,90556,0.000221,7.74e-06,0,4511209,0 SL-8 DEB,1 04084U 69070C   24275.52127682  .00000774  00000-0  22100-3 0  9997,2 04084  74.0692  38.7250 0020706  90.1080 270.2451 14.46683150905568,1969-070C,4084,7114.639,99.538,751.236,721.773,0
GENERATED VIA SPACETRACK.ORG API,18 SPCS,4084,SL-8 DEB,DEBRIS,U,69070C,2024-10-01 19:08:57,162048,14.46683766,0.0020692,74.0693,38.2095,89.485,270.868,0,999,90560,0.00022942,8.04e-06,0,4511491,0 SL-8 DEB,1 04084U 69070C   24275.79788382  .00000804  00000-0  22942-3 0  9994,2 04084  74.0693  38.2095 0020692  89.4850 270.8680 14.46683766905609,1969-070C,4084,7114.637,99.538,751.224,721.781,0
GENERATED VIA SPACETRACK.ORG API,18 SPCS,4084,SL-8 DEB,DEBRIS,U,69070C,2024-10-02 10:05:09,502368,14.46686594,0.002069,74.0693,37.0494,88.103,272.2498,0,999,90569,0.00031453,1.113e-05,0,4512136,0 SL-8 DEB,1 04084U 69070C   24276.42024887  .00001113  00000-0  31453-3 0  9999,2 04084  74.0693  37.0494 0020690  88.1030 272.2498 14.46686594905697,1969-070C,4084,7114.628,99.538,751.213,721.773,0
GENERATED VIA SPACETRACK.ORG API,18 SPCS,4084,SL-8 DEB,DEBRIS,U,69070C,2024-10-02 16:43:28,317792,14.4668696,0.0020686,74.0694,36.5338,87.474,272.8786,0,999,90571,0.00030931,1.094e-05,0,4512219,0 SL-8 DEB,1  4084U 69070C   24276.69685553  .00001094  00000-0  30931-3 0  9999,2  4084  74.0694  36.5338 0020686  87.4740 272.8786 14.46686960905710,1969-070C,4084,7114.627,99.538,751.209,721.775,0
GENERATED VIA SPACETRACK.ORG API,18 SPCS,4084,SL-8 DEB,DEBRIS,U,69070C,2024-10-02 16:43:28,317792,14.4668696,0.0020686,74.0694,36.5338,87.474,272.8786,0,999,90573,0.00030931,1.094e-05,0,4512457,0 SL-8 DEB,1 04084U 69070C   24276.69685553  .00001094  00000-0  30931-3 0  9999,2 04084  74.0694  36.5338 0020686  87.4740 272.8786 14.46686960905732,1969-070C,4084,7114.627,99.538,751.209,721.775,0
GENERATED VIA SPACETRACK.ORG API,18 SPCS,4084,SL-8 DEB,DEBRIS,U,69070C,2024-10-03 14:17:59,469216,14.46688832,0.0020692,74.0695,34.8581,85.4506,274.9016,0,999,90586,0.00033375,1.183e-05,0,4512888,0 SL-8 DEB,1 04084U 69070C   24277.59582719  .00001183  00000-0  33375-3 0  9993,2 04084  74.0695  34.8581 0020692  85.4506 274.9016 14.46688832905862,1969-070C,4084,7114.621,99.538,751.207,721.764,0
GENERATED VIA SPACETRACK.ORG API,18 SPCS,4084,SL-8 DEB,DEBRIS,U,69070C,2024-10-03 17:37:08,855328,14.4668914,0.0020671,74.0696,34.6004,85.111,275.2408,0,999,90588,0.00033598,1.191e-05,0,4513468,0 SL-8 DEB,1 04084U 69070C   24277.73413027  .00001191  00000-0  33598-3 0  9990,2 04084  74.0696  34.6004 0020671  85.1110 275.2408 14.46689140905880,1969-070C,4084,7114.62,99.538,751.191,721.778,0
GENERATED VIA SPACETRACK.ORG API,18 SPCS,4084,SL-8 DEB,DEBRIS,U,69070C,2024-10-04 11:52:30,471168,14.46690282,0.0020676,74.0698,33.1827,83.4113,276.9399,0,999,90599,0.00032191,1.14e-05,0,4514132,0 SL-8 DEB,1 04084U 69070C   24278.49479712  .00001140  00000-0  32191-3 0  9999,2 04084  74.0698  33.1827 0020676  83.4113 276.9399 14.46690282905996,1969-070C,4084,7114.616,99.538,751.191,721.771,0
GENERATED VIA SPACETRACK.ORG API,18 SPCS,4084,SL-8 DEB,DEBRIS,U,69070C,2024-10-04 20:10:23,883744,14.46691442,0.0020669,74.0699,32.5381,82.6017,277.7489,0,999,90602,0.00034434,1.221e-05,0,4514260,0 SL-8 DEB,1  4084U 69070C   24278.84055421  .00001221  00000-0  34434-3 0  9997,2  4084  74.0699  32.5381 0020669  82.6017 277.7489 14.46691442906024,1969-070C,4084,7114.612,99.537,751.182,721.772,0
GENERATED VIA SPACETRACK.ORG API,18 SPCS,4084,SL-8 DEB,DEBRIS,U,69070C,2024-10-05 14:25:45,385536,14.46692784,0.002067,74.07,31.1202,80.8986,279.451,0,999,90615,0.00033793,1.198e-05,0,4515143,0 SL-8 DEB,1 04084U 69070C   24279.60121974  .00001198  00000-0  33793-3 0  9999,2 04084  74.0700  31.1202 0020670  80.8986 279.4510 14.46692784906159,1969-070C,4084,7114.608,99.537,751.179,721.767,0
GENERATED VIA SPACETRACK.ORG API,18 SPCS,4084,SL-8 DEB,DEBRIS,U,69070C,2024-10-05 17:44:54,737088,14.46693076,0.0020662,74.0701,30.8624,80.5816,279.7677,0,999,90617,0.00033825,1.199e-05,0,4515455,0 SL-8 DEB,1 04084U 69070C   24279.73952242  .00001199  00000-0  33825-3 0  9990,2 04084  74.0701  30.8624 0020662  80.5816 279.7677 14.46693076906178,1969-070C,4084,7114.607,99.537,751.172,721.772,0
GENERATED VIA SPACETRACK.ORG API,18 SPCS,4084,SL-8 DEB,DEBRIS,U,69070C,2024-10-06 13:39:50,822208,14.46693674,0.0020653,74.0702,29.3158,78.6943,281.6535,0,999,90629,0.0002836,1.001e-05,0,4516175,0 SL-8 DEB,1 04084U 69070C   24280.56933822  .00001001  00000-0  28360-3 0  9996,2 04084  74.0702  29.3158 0020653  78.6943 281.6535 14.46693674906295,1969-070C,4084,7114.605,99.537,751.164,721.776,0
GENERATED VIA SPACETRACK.ORG API,18 SPCS,4084,SL-8 DEB,DEBRIS,U,69070C,2024-10-06 20:18:09,487296,14.46694441,0.0020653,74.0702,28.8002,78.0585,282.2888,0,999,90633,0.00029227,1.032e-05,0,4516522,0 SL-8 DEB,1 04084U 69070C   24280.84594314  .00001032  00000-0  29227-3 0  9993,2 04084  74.0702  28.8002 0020653  78.0585 282.2888 14.46694441906339,1969-070C,4084,7114.602,99.537,751.161,721.774,0
GENERATED VIA SPACETRACK.ORG API,18 SPCS,4084,SL-8 DEB,DEBRIS,U,69070C,2024-10-06 20:18:09,487296,14.46694441,0.0020653,74.0702,28.8002,78.0585,282.2888,0,999,90631,0.00029227,1.032e-05,0,4516616,0 SL-8 DEB,1  4084U 69070C   24280.84594314  .00001032  00000-0  29227-3 0  9993,2  4084  74.0702  28.8002 0020653  78.0585 282.2888 14.46694441906317,1969-070C,4084,7114.602,99.537,751.161,721.774,0
GENERATED VIA SPACETRACK.ORG API,18 SPCS,4084,SL-8 DEB,DEBRIS,U,69070C,2024-10-07 06:15:37,448640,14.46695683,0.0020649,74.0702,28.0268,77.1098,283.2366,0,999,90639,0.00030675,1.085e-05,0,4517222,0 SL-8 DEB,1 04084U 69070C   24281.26085010  .00001085  00000-0  30675-3 0  9995,2 04084  74.0702  28.0268 0020649  77.1098 283.2366 14.46695683906396,1969-070C,4084,7114.598,99.537,751.154,721.772,0
GENERATED VIA SPACETRACK.ORG API,18 SPCS,4084,SL-8 DEB,DEBRIS,U,69070C,2024-10-08 13:47:35,757888,14.46699619,0.0020665,74.0703,25.5778,74.1559,286.1876,0,999,90658,0.0003362,1.192e-05,0,4518461,0 SL-8 DEB,1 04084U 69070C   24282.57471942  .00001192  00000-0  33620-3 0  9995,2 04084  74.0703  25.5778 0020665  74.1559 286.1876 14.46699619906584,1969-070C,4084,7114.585,99.537,751.153,721.748,0
GENERATED VIA SPACETRACK.ORG API,18 SPCS,4084,SL-8 DEB,DEBRIS,U,69070C,2024-10-08 17:06:45,35136,14.46699964,0.0020677,74.0702,25.3199,73.8535,286.4898,0,999,90660,0.00033425,1.185e-05,0,4518921,0 SL-8 DEB,1 04084U 69070C   24282.71302124  .00001185  00000-0  33425-3 0  9991,2 04084  74.0702  25.3199 0020677  73.8535 286.4898 14.46699964906604,1969-070C,4084,7114.584,99.537,751.16,721.738,0
GENERATED VIA SPACETRACK.ORG API,18 SPCS,4084,SL-8 DEB,DEBRIS,U,69070C,2024-10-08 23:45:03,759840,14.46698445,0.0020686,74.0703,24.8042,73.2071,287.1355,0,999,90662,0.00024963,8.78e-06,0,4519063,0 SL-8 DEB,1  4084U 69070C   24282.98962685  .00000878  00000-0  24963-3 0  9999,2  4084  74.0703  24.8042 0020686  73.2071 287.1355 14.46698445906626,1969-070C,4084,7114.589,99.537,751.171,721.737,0
GENERATED VIA SPACETRACK.ORG API,18 SPCS,4084,SL-8 DEB,DEBRIS,U,69070C,2024-10-09 09:42:31,611456,14.46700052,0.0020693,74.0703,24.0309,72.3009,288.0407,0,999,90670,0.00028377,1.002e-05,0,4519698,0 SL-8 DEB,1 04084U 69070C   24283.40453254  .00001002  00000-0  28377-3 0  9997,2 04084  74.0703  24.0309 0020693  72.3009 288.0407 14.46700052906708,1969-070C,4084,7114.584,99.537,751.171,721.727,0
GENERATED VIA SPACETRACK.ORG API,18 SPCS,4084,SL-8 DEB,DEBRIS,U,69070C,2024-10-09 19:39:59,474304,14.4670047,0.0020699,74.0703,23.2575,71.3376,289.0028,0,999,90676,0.00026332,9.28e-06,0,4519993,0 SL-8 DEB,1 04084U 69070C   24283.81943836  .00000928  00000-0  26332-3 0  9997,2 04084  74.0703  23.2575 0020699  71.3376 289.0028 14.46700470906766,1969-070C,4084,7114.583,99.537,751.174,721.721,0
GENERATED VIA SPACETRACK.ORG API,18 SPCS,4084,SL-8 DEB,DEBRIS,U,69070C,2024-10-10 13:55:20,476704,14.46701957,0.0020711,74.0704,21.8396,69.642,290.6961,0,999,90687,0.00025931,9.13e-06,0,4520681,0 SL-8 DEB,1 04084U 69070C   24284.58009811  .00000913  00000-0  25931-3 0  9996,2 04084  74.0704  21.8396 0020711  69.6420 290.6961 14.46701957906874,1969-070C,4084,7114.578,99.537,751.178,721.708,0
GENERATED VIA SPACETRACK.ORG API,18 SPCS,4084,SL-8 DEB,DEBRIS,U,69070C,2024-10-10 17:14:29,735808,14.46702215,0.0020712,74.0703,21.5817,69.3553,290.9824,0,999,90689,0.0002569,9.04e-06,0,4521009,0 SL-8 DEB,1 04084U 69070C   24284.71839972  .00000904  00000-0  25690-3 0  9992,2 04084  74.0703  21.5817 0020712  69.3553 290.9824 14.46702215906894,1969-070C,4084,7114.577,99.537,751.178,721.706,0
GENERATED VIA SPACETRACK.ORG API,18 SPCS,4084,SL-8 DEB,DEBRIS,U,69070C,2024-10-10 23:52:48,40608,14.46706102,0.0020716,74.0704,21.0662,68.7234,291.6134,0,999,90691,0.0003881,1.38e-05,0,4521126,0 SL-8 DEB,1  4084U 69070C   24284.99500047  .00001380  00000-0  38810-3 0  9997,2  4084  74.0704  21.0662 0020716  68.7234 291.6134 14.46706102906915,1969-070C,4084,7114.564,99.536,751.168,721.691,0
GENERATED VIA SPACETRACK.ORG API,18 SPCS,4084,SL-8 DEB,DEBRIS,U,69070C,2024-10-11 13:09:25,158240,14.46704997,0.0020728,74.0703,20.035,67.5007,292.8343,0,999,90701,0.00029208,1.032e-05,0,4521985,0 SL-8 DEB,1 04084U 69070C   24285.54820785  .00001032  00000-0  29208-3 0  9998,2 04084  74.0703  20.0350 0020728  67.5007 292.8343 14.46704997907012,1969-070C,4084,7114.568,99.537,751.18,721.686,0
